CAS-2T & KS-1Q          
1 41847U 16066G   20208.86696072  .00000041  00000-0  15683-4 0  9991
2 41847  98.6510 259.7739 0366784 111.4451 252.6269 14.38080041195082
NAYIF-1 (EO-88)         
1 42017U 17008BX  20208.87891588  .00001144  00000-0  46466-4 0  9996
2 42017  97.3577 275.8637 0006431 167.2062 192.9341 15.26585850191566
MAX VALIER SAT          
1 42778U 17036P   20208.83831133  .00000635  00000-0  30188-4 0  9995
2 42778  97.3021 261.3800 0010639 239.2376 120.7814 15.22675422171720
RADFXSAT (FOX-1B)       
1 43017U 17073E   20209.17082244  .00000261  00000-0  26435-4 0  9997
2 43017  97.7205 119.8743 0255366 281.0548  76.2044 14.78978728145032
FOX-1D (AO-92)          
1 43137U 18004AC  20208.87542282  .00000723  00000-0  32630-4 0  9991
2 43137  97.4439 279.7673 0007448 278.7652  81.2742 15.24183095141050
DIWATA-2B               
1 43678U 18084H   20209.18663835  .00000102  00000-0  15831-4 0  9997
2 43678  97.8895 327.5988 0011014  51.5442 308.6730 14.91641876 94946
ES'HAIL 2               
1 43700U 18090A   20208.82568867  .00000135  00000-0  00000-0 0  9993
2 43700   0.0192  93.8930 0001582  58.8680 115.2164  1.00272481  6103
FOX-1CLIFF (AO-95)      
1 43770U 18099N   20208.86409184  .00000254  00000-0  28421-4 0  9992
2 43770  97.7039 279.5547 0015932  68.4764 291.8153 14.95009328 89807
ITASAT 1                
1 43786U 18099AE  20208.91903240 -.00000177  00000-0 -10848-4 0  9997
2 43786  97.7056 280.0565 0016459  61.9598 298.3285 14.95346057 89832
JY1SAT (JO-97)          
1 43803U 18099AX  20208.92885732  .00000182  00000-0  21555-4 0  9994
2 43803  97.7014 279.8757 0016393  62.5603 297.7283 14.95525935 89831
PSAT2 (NO-104)          
1 44354U 19036R   20208.88116086  .00012037  00000-0  17493-3 0  9999
2 44354  28.5298 121.5779 0362108  12.2925 348.6235 15.04012174 59762
BRICSAT2 (NO-103)       
1 44355U 19036S   20208.87581421  .00023112  00000-0  32075-3 0  9997
2 44355  28.5292 110.7766 0339005  29.8408 332.1065 15.09890602 59868
JAISAT-1                
1 44419U 19038F   20208.84491922  .00000695  00000-0  43125-4 0  9993
2 44419  97.5410 169.9857 0021614 359.7112   0.4103 15.12831980 58556
DUCHIFAT-3              
1 44854U 19089C   20209.19261764  .00000138  00000-0  17573-4 0  9990
2 44854  36.9681 223.5007 0008560  16.9175 343.1844 14.99088068 34262
RS-44 & BREEZE-KM R/B   
1 44909U 19096E   20208.84119475  .00000030  00000-0  70294-4 0  9991
2 44909  82.5239 329.1400 0218287 134.2544 227.6706 12.79708165 27226
ORBITAL FACTORY 2 (OF-2)
1 45113U 19071C   20209.17366367  .00001355  00000-0  52760-4 0  9992
2 45113  51.6433 171.6541 0012673 198.6516 161.4003 15.33461834 27224
HUSKYSAT-1              
1 45119U 19071J   20208.62527968  .00001023  00000-0  42406-4 0  9991
2 45119  51.6427 173.9932 0012027 192.9457 167.1218 15.33669107 27130
